{"type": "FeatureCollection", "features": [ {"type": "Feature", "properties": {"norad_id": 41824, "name": "FENGYUN 1C DEB", "group": "fengyun-1c-debris", "lat": 50.416266136932634, "lon": 30.950582072251223, "alt_km": 844.5712552365994, "timestamp": "2025-12-03T13:52:09.852366+00:00", "meta": {"OBJECT_NAME": "FENGYUN 1C DEB", "OBJECT_ID": "1999-025EYB", "EPOCH": "2025-12-03T03:30:36.467424", "MEAN_MOTION": 14.24047096, "ECCENTRICITY": 0.00564381, "INCLINATION": 98.7333, "RA_OF_ASC_NODE": 41.2364, "ARG_OF_PERICENTER": 254.7318, "MEAN_ANOMALY": 104.7617, "EPHEMERIS_TYPE": 0, "CLASSIFICATION_TYPE": "U", "NORAD_CAT_ID": 41824, "ELEMENT_SET_NO": 999, "REV_AT_EPOCH": 47223, "BSTAR": 0.0020826395, "MEAN_MOTION_DOT": 4.823e-05, "MEAN_MOTION_DDOT": 0}, "tle": {"line1": "1 41824U 99025EYB 25337.14625541  .00004823  00000+0  20826-2 0  9998", "line2": "2 41824  98.7333  41.2364 0056438 254.7318 104.7617 14.24047096472231"}}, "geometry": {"type": "Point", "coordinates": [30.950582072251223, 50.416266136932634]}}, {"type": "Feature", "properties": {"norad_id": 41825, "name": "FENGYUN 1C DEB", "group": "fengyun-1c-debris", "lat": -62.50224067386461, "lon": -150.55649536769957, "alt_km": 776.7249076685112, "timestamp": "2025-12-03T13:52:09.852376+00:00", "meta": {"OBJECT_NAME": "FENGYUN 1C DEB", "OBJECT_ID": "1999-025EYC", "EPOCH": "2025-12-03T04:18:00.147168", "MEAN_MOTION": 14.24968828, "ECCENTRICITY": 0.00543178, "INCLINATION": 98.7429, "RA_OF_ASC_NODE": 46.2424, "ARG_OF_PERICENTER": 247.2832, "MEAN_ANOMALY": 112.2601, "EPHEMERIS_TYPE": 0, "CLASSIFICATION_TYPE": "U", "NORAD_CAT_ID": 41825, "ELEMENT_SET_NO": 999, "REV_AT_EPOCH": 47212, "BSTAR": 0.0022818489, "MEAN_MOTION_DOT": 5.379e-05, "MEAN_MOTION_DDOT": 0}, "tle": {"line1": "1 41825U 99025EYC 25337.17916837  .00005379  00000+0  22818-2 0  9993", "line2": "2 41825  98.7429  46.2424 0054317 247.2832 112.2601 14.24968828472122"}}, "geometry": {"type": "Point", "coordinates": [-150.55649536769957, -62.50224067386461]}}, {"type": "Feature", "properties": {"norad_id": 41826, "name": "FENGYUN 1C DEB", "group": "fengyun-1c-debris", "lat": -76.54580942991491, "lon": -176.55605923582175, "alt_km": 781.7175712487788, "timestamp": "2025-12-03T13:52:09.852386+00:00", "meta": {"OBJECT_NAME": "FENGYUN 1C DEB", "OBJECT_ID": "1999-025EYD", "EPOCH": "2025-11-26T15:20:38.448096", "MEAN_MOTION": 14.23588409, "ECCENTRICITY": 0.00545194, "INCLINATION": 98.735, "RA_OF_ASC_NODE": 36.5456, "ARG_OF_PERICENTER": 270.1742, "MEAN_ANOMALY": 89.3189, "EPHEMERIS_TYPE": 0, "CLASSIFICATION_TYPE": "U", "NORAD_CAT_ID": 41826, "ELEMENT_SET_NO": 999, "REV_AT_EPOCH": 47131, "BSTAR": 0.0016457098, "MEAN_MOTION_DOT": 3.763e-05, "MEAN_MOTION_DDOT": 0}, "tle": {"line1": "1 41826U 99025EYD 25330.63933389  .00003763  00000+0  16457-2 0  9996", "line2": "2 41826  98.7350  36.5456 0054519 270.1742  89.3189 14.23588409471319"}}, "geometry": {"type": "Point", "coordinates": [-176.55605923582175, -76.54580942991491]}}, {"type": "Feature", "properties": {"norad_id": 41827, "name": "FENGYUN 1C DEB", "group": "fengyun-1c-debris", "lat": 73.15301590585997, "lon": -102.63510439508161, "alt_km": 830.1978939235505, "timestamp": "2025-12-03T13:52:09.852396+00:00", "meta": {"OBJECT_NAME": "FENGYUN 1C DEB", "OBJECT_ID": "1999-025EYE", "EPOCH": "2025-12-03T03:15:58.951872", "MEAN_MOTION": 14.25147211, "ECCENTRICITY": 0.00576133, "INCLINATION": 98.7443, "RA_OF_ASC_NODE": 46.3759, "ARG_OF_PERICENTER": 240.8986, "MEAN_ANOMALY": 118.6418, "EPHEMERIS_TYPE": 0, "CLASSIFICATION_TYPE": "U", "NORAD_CAT_ID": 41827, "ELEMENT_SET_NO": 999, "REV_AT_EPOCH": 47194, "BSTAR": 0.0022455617, "MEAN_MOTION_DOT": 5.321e-05, "MEAN_MOTION_DDOT": 0}, "tle": {"line1": "1 41827U 99025EYE 25337.13609898  .00005321  00000+0  22456-2 0  9992", "line2": "2 41827  98.7443  46.3759 0057613 240.8986 118.6418 14.25147211471944"}}, "geometry": {"type": "Point", "coordinates": [-102.63510439508161, 73.15301590585997]}}, {"type": "Feature", "properties": {"norad_id": 41828, "name": "FENGYUN 1C DEB", "group": "fengyun-1c-debris", "lat": -36.06816422869302, "lon": -81.50592505310028, "alt_km": 700.7359850397597, "timestamp": "2025-12-03T13:52:09.852407+00:00", "meta": {"OBJECT_NAME": "FENGYUN 1C DEB", "OBJECT_ID": "1999-025EYF", "EPOCH": "2025-12-03T07:54:35.448480", "MEAN_MOTION": 14.51077498, "ECCENTRICITY": 0.00401532, "INCLINATION": 98.9217, "RA_OF_ASC_NODE": 104.8008, "ARG_OF_PERICENTER": 202.8802, "MEAN_ANOMALY": 157.0603, "EPHEMERIS_TYPE": 0, "CLASSIFICATION_TYPE": "U", "NORAD_CAT_ID": 41828, "ELEMENT_SET_NO": 999, "REV_AT_EPOCH": 47327, "BSTAR": 0.0072004344, "MEAN_MOTION_DOT": 0.00028893, "MEAN_MOTION_DDOT": 0}, "tle": {"line1": "1 41828U 99025EYF 25337.32957695  .00028893  00000+0  72004-2 0  9998", "line2": "2 41828  98.9217 104.8008 0040153 202.8802 157.0603 14.51077498473278"}}, "geometry": {"type": "Point", "coordinates": [-81.50592505310028, -36.06816422869302]}}, {"type": "Feature", "properties": {"norad_id": 41829, "name": "FENGYUN 1C DEB", "group": "fengyun-1c-debris", "lat": -74.10852231474713, "lon": -165.90919846793204, "alt_km": 776.4398442204265, "timestamp": "2025-12-03T13:52:09.852417+00:00", "meta": {"OBJECT_NAME": "FENGYUN 1C DEB", "OBJECT_ID": "1999-025EYG", "EPOCH": "2025-12-03T04:14:26.401344", "MEAN_MOTION": 14.25009194, "ECCENTRICITY": 0.00557753, "INCLINATION": 98.7461, "RA_OF_ASC_NODE": 46.4243, "ARG_OF_PERICENTER": 246.3349, "MEAN_ANOMALY": 113.197, "EPHEMERIS_TYPE": 0, "CLASSIFICATION_TYPE": "U", "NORAD_CAT_ID": 41829, "ELEMENT_SET_NO": 999, "REV_AT_EPOCH": 47171, "BSTAR": 0.0022061842, "MEAN_MOTION_DOT": 5.207e-05, "MEAN_MOTION_DDOT": 0}, "tle": {"line1": "1 41829U 99025EYG 25337.17669446  .00005207  00000+0  22062-2 0  9999", "line2": "2 41829  98.7461  46.4243 0055775 246.3349 113.1970 14.25009194471711"}}, "geometry": {"type": "Point", "coordinates": [-165.90919846793204, -74.10852231474713]}}, {"type": "Feature", "properties": {"norad_id": 41830, "name": "FENGYUN 1C DEB", "group": "fengyun-1c-debris", "lat": 32.251409026282346, "lon": 43.98373669780224, "alt_km": 835.6570442902457, "timestamp": "2025-12-03T13:52:09.852427+00:00", "meta": {"OBJECT_NAME": "FENGYUN 1C DEB", "OBJECT_ID": "1999-025EYH", "EPOCH": "2025-12-03T00:14:47.938848", "MEAN_MOTION": 14.2631278, "ECCENTRICITY": 0.00539917, "INCLINATION": 98.7543, "RA_OF_ASC_NODE": 48.9961, "ARG_OF_PERICENTER": 244.4093, "MEAN_ANOMALY": 115.1501, "EPHEMERIS_TYPE": 0, "CLASSIFICATION_TYPE": "U", "NORAD_CAT_ID": 41830, "ELEMENT_SET_NO": 999, "REV_AT_EPOCH": 47135, "BSTAR": 0.0023798513, "MEAN_MOTION_DOT": 5.761e-05, "MEAN_MOTION_DDOT": 0}, "tle": {"line1": "1 41830U 99025EYH 25337.01027707  .00005761  00000+0  23799-2 0  9995", "line2": "2 41830  98.7543  48.9961 0053991 244.4093 115.1501 14.26312780471352"}}, "geometry": {"type": "Point", "coordinates": [43.98373669780224, 32.251409026282346]}}, {"type": "Feature", "properties": {"norad_id": 41831, "name": "FENGYUN 1C DEB", "group": "fengyun-1c-debris", "lat": -76.20312236274175, "lon": 83.24806055609318, "alt_km": 784.0990548724985, "timestamp": "2025-12-03T13:52:09.852438+00:00", "meta": {"OBJECT_NAME": "FENGYUN 1C DEB", "OBJECT_ID": "1999-025EYJ", "EPOCH": "2025-12-03T04:07:30.322272", "MEAN_MOTION": 14.24448797, "ECCENTRICITY": 0.00557682, "INCLINATION": 98.7354, "RA_OF_ASC_NODE": 44.0804, "ARG_OF_PERICENTER": 248.5057, "MEAN_ANOMALY": 111.017, "EPHEMERIS_TYPE": 0, "CLASSIFICATION_TYPE": "U", "NORAD_CAT_ID": 41831, "ELEMENT_SET_NO": 999, "REV_AT_EPOCH": 47123, "BSTAR": 0.0022762269, "MEAN_MOTION_DOT": 5.316e-05, "MEAN_MOTION_DDOT": 0}, "tle": {"line1": "1 41831U 99025EYJ 25337.17187873  .00005316  00000+0  22762-2 0  9999", "line2": "2 41831  98.7354  44.0804 0055768 248.5057 111.0170 14.24448797471235"}}, "geometry": {"type": "Point", "coordinates": [83.24806055609318, -76.20312236274175]}}, {"type": "Feature", "properties": {"norad_id": 41832, "name": "FENGYUN 1C DEB", "group": "fengyun-1c-debris", "lat": -13.358030927315278, "lon": 43.75457497899003, "alt_km": 818.923215735992, "timestamp": "2025-12-03T13:52:09.852448+00:00", "meta": {"OBJECT_NAME": "FENGYUN 1C DEB", "OBJECT_ID": "1999-025EYK", "EPOCH": "2025-12-03T03:48:56.196864", "MEAN_MOTION": 14.24117814, "ECCENTRICITY": 0.00549519, "INCLINATION": 98.7309, "RA_OF_ASC_NODE": 41.2473, "ARG_OF_PERICENTER": 253.1562, "MEAN_ANOMALY": 106.3586, "EPHEMERIS_TYPE": 0, "CLASSIFICATION_TYPE": "U", "NORAD_CAT_ID": 41832, "ELEMENT_SET_NO": 999, "REV_AT_EPOCH": 47214, "BSTAR": 0.0021236896, "MEAN_MOTION_DOT": 4.922e-05, "MEAN_MOTION_DDOT": 0}, "tle": {"line1": "1 41832U 99025EYK 25337.15898376  .00004922  00000+0  21237-2 0  9993", "line2": "2 41832  98.7309  41.2473 0054951 253.1562 106.3586 14.24117814472145"}}, "geometry": {"type": "Point", "coordinates": [43.75457497899003, -13.358030927315278]}}, {"type": "Feature", "properties": {"norad_id": 41833, "name": "FENGYUN 1C DEB", "group": "fengyun-1c-debris", "lat": 37.898107491748384, "lon": -125.95160822793089, "alt_km": 815.0241516538244, "timestamp": "2025-12-03T13:52:09.852458+00:00", "meta": {"OBJECT_NAME": "FENGYUN 1C DEB", "OBJECT_ID": "1999-025EYL", "EPOCH": "2025-12-01T10:40:16.856256", "MEAN_MOTION": 14.25661279, "ECCENTRICITY": 0.00535293, "INCLINATION": 98.7504, "RA_OF_ASC_NODE": 45.0337, "ARG_OF_PERICENTER": 255.6089, "MEAN_ANOMALY": 103.9145, "EPHEMERIS_TYPE": 0, "CLASSIFICATION_TYPE": "U", "NORAD_CAT_ID": 41833, "ELEMENT_SET_NO": 999, "REV_AT_EPOCH": 47203, "BSTAR": 0.0020500146, "MEAN_MOTION_DOT": 4.891e-05, "MEAN_MOTION_DDOT": 0}, "tle": {"line1": "1 41833U 99025EYL 25335.44463954  .00004891  00000+0  20500-2 0  9991", "line2": "2 41833  98.7504  45.0337 0053529 255.6089 103.9145 14.25661279472037"}}, "geometry": {"type": "Point", "coordinates": [-125.95160822793089, 37.898107491748384]}}]}